[{"OBJECT_NAME":"STARLINK-36539","OBJECT_ID":"2026-008B","EPOCH":"2026-03-09T09:46:18.249888","MEAN_MOTION":15.27589101,"ECCENTRICITY":0.00040482,"INCLINATION":43.0027,"RA_OF_ASC_NODE":207.2864,"ARG_OF_PERICENTER":291.88,"MEAN_ANOMALY":68.1621,"EPHEMERIS_TYPE":0,"CLASSIFICATION_TYPE":"U","NORAD_CAT_ID":67446,"ELEMENT_SET_NO":999,"REV_AT_EPOCH":952,"BSTAR":0.00096121986,"MEAN_MOTION_DOT":0.00026294,"MEAN_MOTION_DDOT":0},{"OBJECT_NAME":"CSSWE","OBJECT_ID":"2012-048D","EPOCH":"2026-03-09T08:13:05.901888","MEAN_MOTION":15.39093253,"ECCENTRICITY":0.00676686,"INCLINATION":64.6623,"RA_OF_ASC_NODE":70.3925,"ARG_OF_PERICENTER":202.9126,"MEAN_ANOMALY":156.8988,"EPHEMERIS_TYPE":0,"CLASSIFICATION_TYPE":"U","NORAD_CAT_ID":38761,"ELEMENT_SET_NO":999,"REV_AT_EPOCH":10100,"BSTAR":0.00070329542,"MEAN_MOTION_DOT":0.0002953,"MEAN_MOTION_DDOT":0}]
